[{"OBJECT_NAME":"STARLINK-6199","OBJECT_ID":"2023-065BA","EPOCH":"2026-03-09T22:00:01.999584","MEAN_MOTION":15.12854683,"ECCENTRICITY":0.00012558,"INCLINATION":43.0009,"RA_OF_ASC_NODE":221.3675,"ARG_OF_PERICENTER":299.9377,"MEAN_ANOMALY":207.453,"EPHEMERIS_TYPE":0,"CLASSIFICATION_TYPE":"U","NORAD_CAT_ID":56551,"ELEMENT_SET_NO":999,"REV_AT_EPOCH":577,"BSTAR":0.0068922867,"MEAN_MOTION_DOT":0.00125298,"MEAN_MOTION_DDOT":0},{"OBJECT_NAME":"PIESAT-2 12","OBJECT_ID":"2024-241D","EPOCH":"2026-03-07T12:51:59.071104","MEAN_MOTION":15.13473962,"ECCENTRICITY":0.0001617,"INCLINATION":97.5188,"RA_OF_ASC_NODE":15.2831,"ARG_OF_PERICENTER":92.1579,"MEAN_ANOMALY":267.9837,"EPHEMERIS_TYPE":0,"CLASSIFICATION_TYPE":"U","NORAD_CAT_ID":62336,"ELEMENT_SET_NO":999,"REV_AT_EPOCH":6742,"BSTAR":0.00074906088,"MEAN_MOTION_DOT":0.00013349,"MEAN_MOTION_DDOT":0}]
